[{"OBJECT_NAME":"YUNYAO-1 19","OBJECT_ID":"2024-009B","EPOCH":"2026-03-09T22:41:16.279584","MEAN_MOTION":15.16041229,"ECCENTRICITY":0.00054864,"INCLINATION":49.9832,"RA_OF_ASC_NODE":292.0338,"ARG_OF_PERICENTER":239.381,"MEAN_ANOMALY":120.6601,"EPHEMERIS_TYPE":0,"CLASSIFICATION_TYPE":"U","NORAD_CAT_ID":58759,"ELEMENT_SET_NO":999,"REV_AT_EPOCH":11960,"BSTAR":0.00060829215,"MEAN_MOTION_DOT":0.00011575,"MEAN_MOTION_DDOT":0},{"OBJECT_NAME":"COSMOS 1275 DEB","OBJECT_ID":"1981-053PA","EPOCH":"2026-03-08T15:19:20.112672","MEAN_MOTION":15.17408079,"ECCENTRICITY":0.00116181,"INCLINATION":83.059,"RA_OF_ASC_NODE":288.5099,"ARG_OF_PERICENTER":114.3087,"MEAN_ANOMALY":306.5278,"EPHEMERIS_TYPE":0,"CLASSIFICATION_TYPE":"U","NORAD_CAT_ID":39964,"ELEMENT_SET_NO":999,"REV_AT_EPOCH":62291,"BSTAR":0.0038016178,"MEAN_MOTION_DOT":0.00076824,"MEAN_MOTION_DDOT":0}]
